OBJECT_NAME,OBJECT_ID,EPOCH,MEAN_MOTION,ECCENTRICITY,INCLINATION,RA_OF_ASC_NODE,ARG_OF_PERICENTER,MEAN_ANOMALY,EPHEMERIS_TYPE,CLASSIFICATION_TYPE,NORAD_CAT_ID,ELEMENT_SET_NO,REV_AT_EPOCH,BSTAR,MEAN_MOTION_DOT,MEAN_MOTION_DDOT
OPS 6582 (TRANSIT 5B-5),1964-083D,2026-06-08T20:37:42.115872,13.57012034,.0039748,90.0766,202.9732,303.8493,236.0920,0,U,965,999,4248,.66461E-4,.56E-6,0
LES-1,1965-008C,2026-06-08T10:37:18.645024,9.88354970,.001559,32.1452,65.4180,239.0699,120.8266,0,U,1002,999,21532,-.11481E-2,0,0
SOLRAD 7B,1965-016D,2026-06-08T12:09:53.263008,13.94974770,.001925,70.0797,254.7175,137.7574,222.5019,0,U,1291,999,11549,.38986E-4,0,0
SECOR 4 (EGRS 4),1965-027B,2026-06-08T08:49:44.153760,12.92667695,.0029913,90.2502,15.3790,221.0882,264.2704,0,U,1315,999,88578,.31404E-4,.16E-6,0
TIROS 10,1965-051A,2026-06-08T18:48:43.744896,14.41628145,.0056451,98.5030,279.1519,104.0614,256.6859,0,U,1430,999,19470,.72646E-4,.196E-5,0
ALOUETTE 2,1965-098A,2026-06-08T18:35:12.149088,12.28336662,.1329687,79.8016,283.8136,249.6033,95.7571,0,U,1804,999,67824,.15917E-3,.478E-5,0
OV3-3,1966-070A,2026-06-08T19:22:51.811968,13.45108835,.1012856,81.3257,338.4053,179.4020,180.8625,0,U,2389,999,59784,.73125E-3,.16317E-3,0
SECOR 7 (EGRS 7),1966-077B,2026-05-31T19:23:56.009760,8.59615314,.0011654,90.3353,277.2466,75.1080,285.1061,0,U,2411,999,87597,-.94660848E-2,-.17E-6,0
ERS 15,1966-077C,2026-05-30T06:48:48.924576,8.59079282,.00073123,90.3351,277.0217,86.0359,274.1328,0,U,2412,999,38892,0,.2E-7,0
ISIS 1,1969-009A,2026-06-07T15:11:06.565632,11.30432624,.17059844,88.4419,145.4497,267.5382,73.0235,0,U,3669,999,35869,.65787576E-4,.88E-6,0
SECOR 13 (EGRS 13),1969-037B,2026-06-08T12:40:50.241792,13.42976706,.0038669,99.6501,31.3910,272.7785,154.7016,0,U,3891,999,80059,.12319E-4,-.36E-6,0
ATS 5,1969-069A,2026-06-08T17:35:25.820736,0.99497572,.0005279,0.2467,156.4851,123.2088,46.4280,0,U,4068,999,4624,0,-.191E-5,0
OPS 7613 (P/L 4),1969-082E,2026-06-08T15:59:52.505952,13.95995177,.0018938,70.0135,122.0925,147.7607,41.0093,0,U,4237,999,88511,.73305E-4,.48E-6,0
OPS 7613 (P/L 1),1969-082B,2026-06-08T19:13:13.090080,13.99195565,.0017159,70.0102,343.0311,74.3156,285.9843,0,U,4256,999,88929,.10054E-3,.93E-6,0
SHINSEI (MS-F2),1971-080A,2026-06-08T15:02:05.363808,12.74251886,.0639695,32.0532,140.1723,342.4604,15.4806,0,U,5485,999,54816,.74205E-4,.56E-6,0
PROSPERO (BLACK ARROW),1971-093A,2026-06-08T19:16:56.267328,14.01591298,.0500128,82.0385,298.1891,251.1322,103.5002,0,U,5580,999,74735,.25337E-3,.1184E-4,0
OPS 7898 (P/L 2),1971-110C,2026-06-08T19:16:26.373792,13.74758128,.0008315,69.9905,20.2234,197.7251,162.3554,0,U,5680,999,34706,.38066E-4,-.14E-6,0
NOAA 2 (ITOS-D),1972-082A,2026-06-08T20:19:19.625088,12.53214688,.0004139,102.0074,178.3269,180.2560,358.4038,0,U,6235,999,45390,.7025E-4,-.35E-6,0
OSCAR 7 (AO-7),1974-089B,2026-06-08T20:35:03.253920,12.53697926,.001249,101.9901,173.0172,145.6484,337.4400,0,U,7530,999,35947,.60281E-4,-.37E-6,0
TIROS N,1978-096A,2026-06-08T19:40:37.182720,14.19372808,.0009125,98.4532,181.2518,266.3455,93.6679,0,U,11060,999,67756,.72804E-4,.112E-5,0
PHASE 3B (AO-10),1983-058B,2026-06-07T04:08:14.383680,2.05872980,.60142661,25.9048,221.2242,112.9115,319.2048,0,U,14129,999,29528,0,-.194E-5,0
HILAT,1983-063A,2026-06-08T18:38:48.105024,14.38706367,.0038286,82.0231,168.8454,317.8167,220.4045,0,U,14154,999,24637,.12005E-3,.387E-5,0
UOSAT 2 (UO-11),1984-021B,2026-06-08T15:07:05.587392,14.90763045,.0006842,97.8053,125.3005,201.4701,158.6231,0,U,14781,999,25585,.13628E-3,.1284E-4,0
NOAA 9,1984-123A,2026-06-08T19:45:38.049120,14.17066091,.0014892,99.0990,186.2670,17.8529,156.9099,0,U,15427,999,14223,.68631E-4,.92E-6,0
GEOSAT,1985-021A,2026-06-08T11:10:17.123808,14.39962331,.0001255,108.0435,63.2987,281.6673,78.4328,0,U,15595,999,16151,.79389E-4,.114E-5,0
EUTELSAT 1-F4 (ECS 4),1987-078B,2026-06-08T18:30:38.536704,0.98691008,.0011207,13.8345,342.1874,43.0669,148.7511,0,U,18351,999,12667,0,-.195E-5,0
PACSAT (AO-16),1990-005D,2026-06-08T17:47:34.996992,14.33934121,.000949,98.8525,195.2224,254.8932,222.4835,0,U,20439,999,90072,.62259E-4,.127E-5,0
LUSAT (LO-19),1990-005G,2026-06-08T01:00:50.703264,14.34120497,.00106669,98.8852,180.5956,229.5628,130.4627,0,U,20442,999,90108,.63300186E-4,.13E-5,0
IRS-1B,1991-061A,2026-06-08T18:25:34.653216,13.97872732,.002497,99.4107,167.5040,28.5910,148.8633,0,U,21688,999,66731,.27212E-3,.34E-5,0
COSMOS 2197,1992-042A,2026-06-08T12:19:07.975200,12.64251936,.0011418,82.5945,234.4752,295.6179,78.6143,0,U,22034,999,56419,-.30049E-4,.5E-7,0
PEGASUS R/B,1993-009C,2026-06-08T15:14:26.166048,14.57959892,.0043997,24.9760,143.8349,15.1716,345.0106,0,U,22491,999,76838,.17088E-3,.1013E-4,0
EYESAT A (AO-27),1993-061C,2026-06-08T17:58:20.786016,14.30940118,.0009403,98.6881,227.1651,121.6345,238.5756,0,U,22825,999,70579,.54073E-4,.98E-6,0
ITAMSAT (IO-26),1993-061D,2026-06-08T17:32:19.453344,14.31366720,.0010048,98.6829,227.0636,106.9907,253.2378,0,U,22826,999,70610,.55484E-4,.103E-5,0
RADIO ROSTO (RS15),1994-085A,2026-06-08T18:42:03.503808,11.27583634,.0155693,64.8186,316.8145,5.4303,354.8266,0,U,23439,999,29495,.2661E-3,-.33E-6,0
JAS-2 (FO-29),1996-046B,2026-06-08T19:24:22.601952,13.53273721,.0350764,98.5248,9.8285,118.1164,245.5894,0,U,24278,999,47203,.23431E-4,-.9E-7,0
FORTE,1997-047A,2026-06-08T18:12:53.896896,14.27942062,.0024528,69.9542,33.0588,287.5991,72.2452,0,U,24920,999,49748,.80954E-4,.143E-5,0
NOAA 15,1998-030A,2026-06-08T20:13:28.078176,14.27143962,.0010559,98.5067,180.7006,18.8773,341.2797,0,U,25338,999,46010,.65097E-4,.116E-5,0
TECHSAT 1B (GO-32),1998-043D,2026-06-08T16:55:52.512096,14.24426807,.0000575,99.0065,152.2503,185.5872,174.5300,0,U,25397,999,45012,.51506E-4,.72E-6,0
ISS (ZARYA),1998-067A,2026-06-08T19:17:55.071168,15.49672912,.0006923,51.6336,341.5878,148.5365,211.6039,0,U,25544,999,57045,.13425E-3,.7129E-4,0
ORSTED,1999-008B,2026-06-08T11:55:13.730016,14.51800964,.0130918,96.4832,68.9858,213.9112,145.3669,0,U,25635,999,44070,.10085E-3,.42E-5,0
LANDSAT 7,1999-020A,2026-06-08T20:20:42.253728,14.63909892,.0001798,97.8578,163.8656,95.0947,25.6372,0,U,25682,999,44462,.89178E-4,.422E-5,0
ORBCOMM FM36,1999-065E,2026-06-08T10:21:29.413152,14.39181903,.0005369,45.0373,201.1523,276.3984,83.6254,0,U,25984,999,38572,.28076E-3,.735E-5,0
DMSP 5D-3 F15 (USA 147),1999-067A,2026-06-08T20:20:12.473376,14.17561926,.0010493,98.9963,198.2977,31.9638,146.4541,0,U,25991,999,36946,.86302E-4,.13E-5,0
OPAL (OO-38),2000-004C,2026-06-08T18:11:38.754816,14.37961671,.0036473,100.1911,95.0262,59.4319,301.0453,0,U,26063,999,38207,.74867E-4,.169E-5,0
IMAGE,2000-017A,2026-06-08T09:09:06.779808,1.68665472,.7438912,94.2210,315.2579,288.8048,8.8428,0,U,26113,999,16135,.15648E-1,.33E-6,0
CLUSTER II-FM7 (SAMBA),2000-041A,2026-06-10T10:42:37.437696,0.44840364,.9048191,149.9132,49.6129,266.6863,359.9829,0,U,26410,999,2028,0,.4459E-4,0
CLUSTER II-FM8 (TANGO),2000-045B,2026-06-06T04:22:15.257856,0.44406384,.90462015,150.1407,49.6985,266.6195,3.2041,0,U,26464,999,2026,0,.4544E-4,0
MEGSAT-1,2000-057B,2026-06-08T04:14:14.394336,15.05445258,.0041958,64.5497,97.9865,284.7990,74.8481,0,U,26546,999,39630,.223E-3,.3093E-4,0
PHASE 3D (AO-40),2000-072B,2026-06-07T19:55:36.094368,1.25588181,.79308863,9.4410,352.4032,175.5404,203.3192,0,U,26609,999,11739,0,-.74E-6,0
ODIN,2001-007A,2026-06-08T19:58:01.460640,15.73070129,.0006519,97.3860,200.2521,153.4635,206.6964,0,U,26702,999,38808,.10887E-2,.150976E-2,0
OMNI-M1,2001-026A,2026-06-07T00:52:23.982816,3.92401508,.00145,44.8338,247.6044,52.1985,307.9833,0,U,26857,999,20517,0,-.11E-6,0
PCSAT (NO-44),2001-043C,2026-06-08T16:59:32.490816,14.31953256,.000611,67.0512,266.2023,264.2688,95.7717,0,U,26931,999,28923,.80309E-4,.132E-5,0
PROBA-1,2001-049B,2026-06-08T20:08:50.354016,15.07459254,.0055561,97.9601,168.0805,149.8776,210.5666,0,U,26958,999,34236,.17278E-3,.2641E-4,0
SPOT 5,2002-021A,2026-06-08T17:04:07.006944,14.54746150,.0128416,97.9849,198.9491,303.1762,55.7172,0,U,27421,999,26161,.73444E-4,.3E-5,0
FENGYUN 1D,2002-024B,2026-06-08T18:37:36.747264,14.10223534,.0014299,98.9520,210.1445,266.3619,93.5916,0,U,27431,999,23829,.71929E-4,.83E-6,0
SAUDISAT 1C (SO-50),2002-058C,2026-06-08T14:11:31.852896,14.83028843,.0075448,64.5503,155.5805,264.0559,95.1944,0,U,27607,999,26318,.1494E-3,.1122E-4,0
CORIOLIS,2003-001A,2026-06-08T17:47:34.265184,14.19942578,.0012996,98.7126,166.7551,234.6012,125.3951,0,U,27640,999,21302,.70589E-4,.106E-5,0
CUTE-1 (CO-55),2003-031E,2026-06-08T17:56:58.128000,14.24330726,.0008975,98.6735,168.4129,203.1783,156.8992,0,U,27844,999,19047,.15325E-3,.31E-5,0
CUBESAT XI-IV (CO-57),2003-031J,2026-06-07T23:00:57.894624,14.23616071,.00085151,98.6766,167.3539,225.8669,134.1810,0,U,27848,999,19006,.14070546E-3,.277E-5,0
MOZHAETS 4 (RS22),2003-042A,2026-06-08T20:50:02.736672,14.73453343,.001018,98.3475,343.9923,299.6521,167.4636,0,U,27939,999,21432,.15736E-3,.968E-5,0
IRS-P6 (RESOURCESAT-1),2003-046A,2026-06-08T21:21:56.412000,14.36159723,.0064459,98.1910,196.8101,8.3605,169.3684,0,U,28051,999,17933,.68716E-4,.164E-5,0
SAUDISAT 2,2004-025F,2026-06-08T17:13:16.809888,14.56679139,.0023969,98.5506,159.4806,325.2693,34.6938,0,U,28371,999,16451,.78117E-4,.3E-5,0
COSMOS 2407,2004-028A,2026-06-08T18:40:03.285984,13.76334161,.0037789,82.9609,81.0621,276.3551,141.7022,0,U,28380,999,9872,.4953E-4,.63E-6,0
COSMOS 2414,2005-002A,2026-06-08T19:31:51.214944,13.87925925,.0040082,82.9505,49.9807,355.3862,4.6925,0,U,28521,999,8265,.30735E-4,.52E-6,0
INMARSAT 4-F1,2005-009A,2026-06-08T19:02:18.768192,1.00271982,.0002707,5.1558,42.7387,38.2720,279.8694,0,U,28628,999,7758,0,.47E-6,0
HAMSAT (VO-52),2005-017B,2026-06-08T20:06:25.805088,15.09654040,.002071,97.9908,182.5539,67.6641,292.6779,0,U,28650,999,14550,.27004E-3,.4297E-4,0
NOAA 18,2005-018A,2026-06-08T18:29:44.097792,14.13727724,.0014477,98.8112,239.5695,170.7190,189.4253,0,U,28654,999,8512,.47244E-4,.46E-6,0
